#dP2024  2 20 12  0  0.00000000      96 __u+U IGS20 EXT  IAC
## 2302 216000.00000000   900.00000000 60360 0.5000000000000
+  118   C06C07C08C09C10C11C12C13C14C16C19C20C21C22C23C24C25
+        C26C27C28C29C30C32C33C34C35C36C37C38C39C40C41C42C43
+        C44C45C46E02E03E04E05E07E08E09E10E11E12E13E14E15E18
+        E19E21E24E25E26E27E30E31E33E34E36G01G02G03G04G05G06
+        G07G08G09G10G11G12G13G14G15G16G17G18G19G20G21G22G23
+        G24G25G26G27G28G29G30G31G32J02J04R01R02R03R04R05R07
+        R08R09R11R12R13R14R15R16R17R18R19R20R21R22R24R26  0
++         9  9  9  9  9  8  9 10  8  9  8  9  9  7 10  9  9
++         9  8  9  8 10 10  9  8  7  9  9  9 10 11  9  7  8
++         9  8  9  7  8  8  7  7  7  8  7  9  9  9  8  9  6
++         8  8  8  7  8  8  8  7  7  8  7  7  7  8  7  8  9
++         7  8  7  7  8  7  7  8  8  6  8  7  8  8  8  8  8
++         8  8  7  7  8  8  7  7  7  9 10  8  8  8  7  8 10
++         9  7  8  8  9  8  8  8  8  9 10  8  7  9  9  8  0
%c M  cc GPS ccc cccc cccc cccc cccc ccccc ccccc ccccc ccccc
%c cc cc ccc ccc cccc cccc cccc cccc ccccc ccccc ccccc ccccc
%f  0.0000000  0.000000000  0.00000000000  0.000000000000000
%f  0.0000000  0.000000000  0.00000000000  0.000000000000000
%i    0    0    0    0      0      0      0      0         0
%i    0    0    0    0      0      0      0      0         0
/* IAC                                ULTRA-RAPID PREDICTION
/* S/V CLOCKS ARE ALIGNED TO GNSS TIME                      
/* G:C1WC2W R:C1PC2P E:C1XC5X C:C2IC6I J:C1CC2S             
/* PCV:IGS20_2290 OL/AL:FES2004  NONE     YN ORB:CoN CLK:CoN
*  2024 02 20 18 30  0.00000000
PC06 -11518.427884  40629.551473   2895.580536    123.015918
PC07  -4770.740544  28712.876369 -30372.407977   -833.284255
PC08 -18526.556094  23714.435715  29432.540663     23.064390
PC09  -7575.474591  41408.539826  -5385.679785   -516.923552
PC10   3037.546516  31097.036603 -27766.508950     76.972611
PC11 -15216.654918  -7877.520389 -21957.131105    420.818469
PC12  -8643.962212 -24704.086068  -9634.338349    765.283094
PC13  -8816.626881  24731.157944  33076.502770    419.040820
PC14 -26320.467222  -8489.742502   3980.039071    234.375379
PC16 -13195.518542  39848.152281   5841.836082   -351.331456
PC19  24817.250611   1530.338811 -12616.031060   -925.061129
PC20  24228.905195  13311.799370   3696.939145   -181.999528
PC21  -8853.348096 -18119.100399 -19281.430882   -961.827306
PC22  11145.903491 -11854.166656 -22666.035832   -102.520725
PC23 -19560.598371  19194.662833  -5253.883107   -779.894715
PC24 -14761.516394  -8821.800804  21951.822050    902.619224
PC25 -24063.106461   8306.969931  11394.844514    330.946151
PC26   2410.105984 -19733.218342  19575.977042   -251.989804
PC27   3726.305840  27637.492483   1197.407963    273.979263
PC28  -7359.548525  23055.491515 -13891.968920    208.527271
PC29  15711.998769  -3316.637934  22817.915370    244.433592
PC30  14047.296495  17910.541985  16153.604236    -27.650570
PC32   8839.546063  18055.469806  19367.379052   -570.621170
PC33 -24895.067196  -1414.407878  12557.236858   -950.358381
PC34 -14592.825595 -16434.052349 -17193.278890    373.624988
PC35   6618.171435 -23216.939872  13949.732209    429.046944
PC36  24198.782506  -7373.741218 -11781.041023     -7.975876
PC37  -3237.203017  19799.283668 -19384.516754   -937.696254
PC38 -24935.689986  25236.566736  22734.670571    138.042665
PC39 -14546.159289  37690.901761  12516.839790     -7.219865
PC40  -8466.386825  23172.667086 -34155.201450    -57.362620
PC41 -11981.286253  11464.054834  22504.856234   -893.642158
PC42 -23570.575738 -14029.433381  -5173.559034   -452.674777
PC43 -15994.398426   2273.042314 -22763.895784     61.202632
PC44  -4710.952144 -27466.285880  -1063.057877    390.435039
PC45  19527.677093 -19193.101836   5446.903560    -71.328335
PC46  15475.110392   7990.261880 -21824.558876   -125.441861
PE02 -29568.524320    843.623929    721.591749    105.013789
PE03 -20465.295643  -4742.384514  20856.303513    -95.139101
PE04   9608.483960 -15279.377043 -23451.379922   -331.891479
PE05 -19205.891171 -21673.570154   6135.243435   4721.910387
PE07   6371.235997  25996.873293  12637.579511   -104.814206
PE08 -10038.413656  14582.143585  23723.285751   -226.973215
PE09  -6367.339373 -25936.511201 -12773.174607   -343.158524
PE10  11922.509592 -26981.223697  -2443.216880   -603.461991
PE11   4478.036596 -26462.755772 -12465.327594   3234.533099
PE12  16862.268378 -23343.503787   6796.571973   -914.853732
PE13  -5010.265234  26650.578976  11892.088532    -20.250581
PE14 -24112.188263 -15643.140307 -15056.995627     44.999161
PE15 -17030.879418  23082.622419  -7322.230652    -86.916757
PE18  17686.620250   6904.891621  14084.878203    349.139889
PE19  20836.518736   7170.935430 -19755.955771   -577.197799
PE21  21455.239385  10890.986089 -17253.336607   -580.030436
PE24     86.581357 -16878.612510  24293.575658   -609.144669
PE25 -21123.537596 -11086.679305  17513.370676      1.147291
PE26  10305.895808  14081.756749  23919.513902    374.493669
PE27    460.983198  16822.361978 -24357.267547   -279.658762
PE30 -20779.339068  12657.422003 -16864.421066    -17.314107
PE31  20583.399266 -12767.702066  17017.208005    -16.456119
PE33  18780.143916  -5434.989659  22231.176535      7.892684
PE34 -18888.915312   6064.977953 -21967.376591    -95.734871
PE36  -9743.799672 -14577.476489 -23837.509488   -188.679176
PG01  11967.623082 -23508.644117   -199.419764    170.365778
PG02  14846.801239 -19872.032188   9620.176235   -482.386027
PG03  17400.718471 -11965.674928 -16178.695194    205.580120
PG04   7771.955890 -14652.636011 -20698.121692    296.529445
PG05 -25389.813443   6250.609615   4757.029630   -162.542578
PG06 -10405.566272 -11031.369857 -21720.081329    399.320673
PG07   2917.818959 -23934.674982  11072.574721    -66.610123
PG08  14043.770647  -6546.736638  21503.019157   -167.974963
PG09  -4375.093655 -22512.528898 -13430.691272     98.748721
PG10  16088.002626  11141.800228  18314.423791      1.082078
PG11 -16766.783019   1051.314943 -20535.640927   -582.368389
PG12 -18556.495402  10963.632418 -15764.750545   -479.899682
PG13 -17014.404042  -3967.207963  19869.336631    627.326596
PG14 -12060.851562 -13551.219857  19484.225765    330.886335
PG15 -13362.981661   8289.436451  20930.041617    129.740192
PG16  26794.423851    933.207759   -627.476159   -358.334956
PG17 -12368.514825 -23373.230057   1712.374589    716.356275
PG18  -3047.877740  23516.559465  11786.181269   -559.835961
PG19 -16627.984854 -19338.044797  -8244.639907    443.404467
PG20 -25110.505313    120.809038  -8340.390919    386.765353
PG21  16317.132465 -15226.330527  14077.114059    134.218394
PG22 -18625.211712 -11213.145324  15483.491076     28.030662
PG23   2721.199551  14650.562145  22015.077135    160.387322
PG24 -15128.712176  18814.683210  10179.680833   -434.886213
PG25  -7240.069172  15421.070765 -20652.681860    489.173132
PG26  23696.947529   5103.504475 -11415.561082    188.115767
PG27  19048.621286   6762.061858  17173.652782     -5.723925
PG28   9551.196566  13819.770760 -20592.770781   -137.706810
PG29   1089.712088  22116.347986 -14641.783649   -606.572161
PG30  -5714.041110 -18592.830051  18098.099321   -430.000775
PG31  15251.292827   3880.055584 -21641.475595   -227.828009
PG32  15864.086850  21384.360460  -1387.013695   -612.635210
PJ02 -33063.073220  15080.714672 -16744.991793     -2.163263
PJ04 -25063.367637  27573.252262  25541.694063     50.870720
PR01  17361.361910    493.447903 -18670.853597     77.693442
PR02   2795.282451 -10981.230781 -22797.343184    -22.508192
PR03 -13354.484744 -16770.967627 -13724.178580     94.891620
PR04 -21571.386296 -13352.562055   2618.222999    224.281477
PR05 -18283.526584  -2748.036086  17577.442487    127.218276
PR07  14006.355877  16886.886474  13101.846517     76.253774
PR08  21706.333131  13147.119034  -2691.075764    -74.481068
PR09 -14976.758652  15562.358960 -13622.163727    171.083492
PR11  16109.595160   2312.398427 -19630.392684     33.689109
PR12  23333.254290  -9707.242540  -3508.867129     36.960388
PR13  16996.758723 -14997.027120  11683.426201    -44.544012
PR14  -1339.161219 -11665.209238  22647.444461     26.088178
PR15 -17232.532732  -1545.440799  18756.470934     82.022715
PR16 -23297.277514   9697.361943   3841.009428     23.426112
PR17  -2318.288529 -23778.971347  -8972.419764     62.858618
PR18  -8496.286990 -11656.130799 -21005.188248    128.386870
PR19 -10704.409393   4294.423974 -22749.571587   -266.551170
PR20  -6950.575084  22652.396731  -9498.861768   -108.578391
PR21   2223.739295  23660.278685   9245.883153    -78.533217
PR22   8873.828177  10916.073797  21310.460489    109.065499
PR24   5995.416275 -23143.627901   8924.855267    -44.710480
PR26  21612.447730  13406.297313  -1776.672673   -197.401757
EOF
